[{"OBJECT_NAME":"STARLINK-5966","OBJECT_ID":"2023-083AV","EPOCH":"2026-03-09T22:00:01.999584","MEAN_MOTION":15.0938576,"ECCENTRICITY":0.00014041,"INCLINATION":43,"RA_OF_ASC_NODE":67.3895,"ARG_OF_PERICENTER":278.8918,"MEAN_ANOMALY":174.089,"EPHEMERIS_TYPE":0,"CLASSIFICATION_TYPE":"U","NORAD_CAT_ID":56919,"ELEMENT_SET_NO":999,"REV_AT_EPOCH":557,"BSTAR":0.0038722234,"MEAN_MOTION_DOT":0.00063281,"MEAN_MOTION_DDOT":0},{"OBJECT_NAME":"PROSPERO (BLACK ARROW)","OBJECT_ID":"1971-093A","EPOCH":"2026-03-09T22:08:42.448992","MEAN_MOTION":14.01391999,"ECCENTRICITY":0.05025266,"INCLINATION":82.0414,"RA_OF_ASC_NODE":17.9371,"ARG_OF_PERICENTER":151.6068,"MEAN_ANOMALY":211.3501,"EPHEMERIS_TYPE":0,"CLASSIFICATION_TYPE":"U","NORAD_CAT_ID":5580,"ELEMENT_SET_NO":999,"REV_AT_EPOCH":73462,"BSTAR":0.00028939621,"MEAN_MOTION_DOT":1.372e-5,"MEAN_MOTION_DDOT":0}]
